LEMUR-1                 
1 40044U 14033AL  26073.89498192  .00002934  00000+0  34441-3 0  9997
2 40044  97.7721 225.8922 0049131  28.9958 331.3970 14.84832195631478
LEMUR-2-GREENBERG       
1 42837U 17042N   26073.89711476  .00022066  00000+0  80303-3 0  9991
2 42837  97.3778 255.1826 0008745 344.6810  15.4163 15.28208840473974
LEMUR-2-ANDIS           
1 42838U 17042P   26073.46232942  .00027754  00000+0  93110-3 0  9990
2 42838  97.3661 254.6616 0008959 345.9434  14.1556 15.30815374473948
LEMUR-2-MONSON          
1 42839U 17042Q   26073.44846409  .00021285  00000+0  84899-3 0  9995
2 42839  97.4035 254.8359 0006274 334.7166  25.3764 15.25188754473716
LEMUR-2-FURIAUS         
1 42840U 17042R   26073.74698682  .00032457  00000+0  12397-2 0  9994
2 42840  97.3748 253.2237 0007416  39.5726 320.6053 15.26538990473788
LEMUR-2-PETERG          
1 42841U 17042S   26073.58448587  .00037283  00000+0  12847-2 0  9996
2 42841  97.3979 258.7383 0003492 321.8505  38.2488 15.29915306473955
LEMUR-2-DEMBITZ         
1 42842U 17042T   26073.91369476  .00023311  00000+0  87532-3 0  9994
2 42842  97.3805 256.3034 0006596 357.7239   2.3969 15.27179521473945
LEMUR-2-ZACHARY         
1 42845U 17042W   26073.58317188  .00055904  00000+0  12825-2 0  9998
2 42845  97.3656 263.7261 0003604 359.7127   0.4118 15.42537226474584
LEMUR-2-JIN-LUEN        
1 43182U 18014C   26073.72815399  .00373996  00000+0  17659-2 0  9990
2 43182  97.5419   4.4785 0005370 148.9484 211.2103 15.82063802446263
LEMUR-2-KADI            
1 43184U 18014E   26073.84910660  .00116447  00000+0  11615-2 0  9994
2 43184  97.4677 358.8243 0002413 143.0866 217.0560 15.65274350446196
LEMUR-2-AMANDA-SVANTE   
1 48269U 21034B   26073.68587226  .00041516  00000+0  14792-2 0  9992
2 48269  97.5831 149.8625 0003155 191.5539 168.5629 15.28798369266599
LEMUR-2-SPECIAL-K       
1 48273U 21034F   26073.70091694  .00102279  00000+0  20603-2 0  9991
2 48273  97.5712 155.2307 0001782 209.7915 150.3233 15.46195014267010
LEMUR-2-EMBRIONOVIS     
1 56970U 23084AQ  26073.88708079  .00021096  00000+0  62548-3 0  9994
2 56970  97.6133 214.7336 0008182 291.6222  68.4149 15.34833009153206
LEMUR-2-MANO            
1 57390U 23100E   26073.63469716  .00186046  00000+0  20590-2 0  9992
2 57390  99.4539  97.8075 0001420 186.2413 173.8821 15.62375698147254
LEMUR-2-DEVERILL-M-T    
1 57391U 23100F   26073.60482744  .00037674  00000+0  11048-2 0  9996
2 57391  99.4575  85.4206 0007296  13.5682 346.5749 15.35072776146710
LEMUR-2-BASS            
1 58259U 23174D   26073.69864028  .00024796  00000+0  62213-3 0  9991
2 58259  97.3876 157.3090 0008555 146.2653 213.9139 15.39975077130809
