[{"OBJECT_NAME":"LEMUR-1","OBJECT_ID":"2014-033AL","EPOCH":"2026-03-14T21:28:46.437888","MEAN_MOTION":14.84832195,"ECCENTRICITY":0.00491316,"INCLINATION":97.7721,"RA_OF_ASC_NODE":225.8922,"ARG_OF_PERICENTER":28.9958,"MEAN_ANOMALY":331.397,"EPHEMERIS_TYPE":0,"CLASSIFICATION_TYPE":"U","NORAD_CAT_ID":40044,"ELEMENT_SET_NO":999,"REV_AT_EPOCH":63147,"BSTAR":0.00034440713,"MEAN_MOTION_DOT":2.934e-5,"MEAN_MOTION_DDOT":0},{"OBJECT_NAME":"LEMUR-2-GREENBERG","OBJECT_ID":"2017-042N","EPOCH":"2026-03-14T21:31:50.715264","MEAN_MOTION":15.2820884,"ECCENTRICITY":0.00087457,"INCLINATION":97.3778,"RA_OF_ASC_NODE":255.1826,"ARG_OF_PERICENTER":344.681,"MEAN_ANOMALY":15.4163,"EPHEMERIS_TYPE":0,"CLASSIFICATION_TYPE":"U","NORAD_CAT_ID":42837,"ELEMENT_SET_NO":999,"REV_AT_EPOCH":47397,"BSTAR":0.000803028,"MEAN_MOTION_DOT":0.00022066,"MEAN_MOTION_DDOT":0},{"OBJECT_NAME":"LEMUR-2-ANDIS","OBJECT_ID":"2017-042P","EPOCH":"2026-03-14T11:05:45.261888","MEAN_MOTION":15.30815374,"ECCENTRICITY":0.00089594,"INCLINATION":97.3661,"RA_OF_ASC_NODE":254.6616,"ARG_OF_PERICENTER":345.9434,"MEAN_ANOMALY":14.1556,"EPHEMERIS_TYPE":0,"CLASSIFICATION_TYPE":"U","NORAD_CAT_ID":42838,"ELEMENT_SET_NO":999,"REV_AT_EPOCH":47394,"BSTAR":0.00093110404,"MEAN_MOTION_DOT":0.00027754,"MEAN_MOTION_DDOT":0},{"OBJECT_NAME":"LEMUR-2-MONSON","OBJECT_ID":"2017-042Q","EPOCH":"2026-03-14T10:45:47.297376","MEAN_MOTION":15.25188754,"ECCENTRICITY":0.00062745,"INCLINATION":97.4035,"RA_OF_ASC_NODE":254.8359,"ARG_OF_PERICENTER":334.7166,"MEAN_ANOMALY":25.3764,"EPHEMERIS_TYPE":0,"CLASSIFICATION_TYPE":"U","NORAD_CAT_ID":42839,"ELEMENT_SET_NO":999,"REV_AT_EPOCH":47371,"BSTAR":0.00084899183,"MEAN_MOTION_DOT":0.00021285,"MEAN_MOTION_DDOT":0},{"OBJECT_NAME":"LEMUR-2-FURIAUS","OBJECT_ID":"2017-042R","EPOCH":"2026-03-14T17:55:39.661248","MEAN_MOTION":15.2653899,"ECCENTRICITY":0.00074169,"INCLINATION":97.3748,"RA_OF_ASC_NODE":253.2237,"ARG_OF_PERICENTER":39.5726,"MEAN_ANOMALY":320.6053,"EPHEMERIS_TYPE":0,"CLASSIFICATION_TYPE":"U","NORAD_CAT_ID":42840,"ELEMENT_SET_NO":999,"REV_AT_EPOCH":47378,"BSTAR":0.0012397149,"MEAN_MOTION_DOT":0.00032457,"MEAN_MOTION_DDOT":0},{"OBJECT_NAME":"LEMUR-2-PETERG","OBJECT_ID":"2017-042S","EPOCH":"2026-03-14T14:01:39.579168","MEAN_MOTION":15.29915306,"ECCENTRICITY":0.00034924,"INCLINATION":97.3979,"RA_OF_ASC_NODE":258.7383,"ARG_OF_PERICENTER":321.8505,"MEAN_ANOMALY":38.2488,"EPHEMERIS_TYPE":0,"CLASSIFICATION_TYPE":"U","NORAD_CAT_ID":42841,"ELEMENT_SET_NO":999,"REV_AT_EPOCH":47395,"BSTAR":0.0012847213,"MEAN_MOTION_DOT":0.00037283,"MEAN_MOTION_DDOT":0},{"OBJECT_NAME":"LEMUR-2-DEMBITZ","OBJECT_ID":"2017-042T","EPOCH":"2026-03-14T21:55:43.227264","MEAN_MOTION":15.27179521,"ECCENTRICITY":0.00065967,"INCLINATION":97.3805,"RA_OF_ASC_NODE":256.3034,"ARG_OF_PERICENTER":357.7239,"MEAN_ANOMALY":2.3969,"EPHEMERIS_TYPE":0,"CLASSIFICATION_TYPE":"U","NORAD_CAT_ID":42842,"ELEMENT_SET_NO":999,"REV_AT_EPOCH":47394,"BSTAR":0.00087531805,"MEAN_MOTION_DOT":0.00023311,"MEAN_MOTION_DDOT":0},{"OBJECT_NAME":"LEMUR-2-ZACHARY","OBJECT_ID":"2017-042W","EPOCH":"2026-03-14T13:59:46.050432","MEAN_MOTION":15.42537226,"ECCENTRICITY":0.00036045,"INCLINATION":97.3656,"RA_OF_ASC_NODE":263.7261,"ARG_OF_PERICENTER":359.7127,"MEAN_ANOMALY":0.4118,"EPHEMERIS_TYPE":0,"CLASSIFICATION_TYPE":"U","NORAD_CAT_ID":42845,"ELEMENT_SET_NO":999,"REV_AT_EPOCH":47458,"BSTAR":0.0012824759,"MEAN_MOTION_DOT":0.00055904,"MEAN_MOTION_DDOT":0},{"OBJECT_NAME":"LEMUR-2-JIN-LUEN","OBJECT_ID":"2018-014C","EPOCH":"2026-03-14T17:28:32.504736","MEAN_MOTION":15.82063802,"ECCENTRICITY":0.00053709,"INCLINATION":97.5419,"RA_OF_ASC_NODE":4.4785,"ARG_OF_PERICENTER":148.9484,"MEAN_ANOMALY":211.2103,"EPHEMERIS_TYPE":0,"CLASSIFICATION_TYPE":"U","NORAD_CAT_ID":43182,"ELEMENT_SET_NO":999,"REV_AT_EPOCH":44626,"BSTAR":0.0017658844,"MEAN_MOTION_DOT":0.00373996,"MEAN_MOTION_DDOT":0},{"OBJECT_NAME":"LEMUR-2-KADI","OBJECT_ID":"2018-014E","EPOCH":"2026-03-14T20:22:42.810240","MEAN_MOTION":15.6527435,"ECCENTRICITY":0.0002413,"INCLINATION":97.4677,"RA_OF_ASC_NODE":358.8243,"ARG_OF_PERICENTER":143.0866,"MEAN_ANOMALY":217.056,"EPHEMERIS_TYPE":0,"CLASSIFICATION_TYPE":"U","NORAD_CAT_ID":43184,"ELEMENT_SET_NO":999,"REV_AT_EPOCH":44619,"BSTAR":0.0011615206,"MEAN_MOTION_DOT":0.00116447,"MEAN_MOTION_DDOT":0},{"OBJECT_NAME":"LEMUR-2-AMANDA-SVANTE","OBJECT_ID":"2021-034B","EPOCH":"2026-03-14T16:27:39.363264","MEAN_MOTION":15.28798369,"ECCENTRICITY":0.0003155,"INCLINATION":97.5831,"RA_OF_ASC_NODE":149.8625,"ARG_OF_PERICENTER":191.5539,"MEAN_ANOMALY":168.5629,"EPHEMERIS_TYPE":0,"CLASSIFICATION_TYPE":"U","NORAD_CAT_ID":48269,"ELEMENT_SET_NO":999,"REV_AT_EPOCH":26659,"BSTAR":0.0014792471,"MEAN_MOTION_DOT":0.00041516,"MEAN_MOTION_DDOT":0},{"OBJECT_NAME":"LEMUR-2-SPECIAL-K","OBJECT_ID":"2021-034F","EPOCH":"2026-03-14T16:49:19.223616","MEAN_MOTION":15.46195014,"ECCENTRICITY":0.00017829,"INCLINATION":97.5712,"RA_OF_ASC_NODE":155.2307,"ARG_OF_PERICENTER":209.7915,"MEAN_ANOMALY":150.3233,"EPHEMERIS_TYPE":0,"CLASSIFICATION_TYPE":"U","NORAD_CAT_ID":48273,"ELEMENT_SET_NO":999,"REV_AT_EPOCH":26701,"BSTAR":0.0020602771,"MEAN_MOTION_DOT":0.00102279,"MEAN_MOTION_DDOT":0},{"OBJECT_NAME":"LEMUR-2-EMBRIONOVIS","OBJECT_ID":"2023-084AQ","EPOCH":"2026-03-14T21:17:23.780256","MEAN_MOTION":15.34833009,"ECCENTRICITY":0.00081827,"INCLINATION":97.6133,"RA_OF_ASC_NODE":214.7336,"ARG_OF_PERICENTER":291.6222,"MEAN_ANOMALY":68.4149,"EPHEMERIS_TYPE":0,"CLASSIFICATION_TYPE":"U","NORAD_CAT_ID":56970,"ELEMENT_SET_NO":999,"REV_AT_EPOCH":15320,"BSTAR":0.00062547575,"MEAN_MOTION_DOT":0.00021096,"MEAN_MOTION_DDOT":0},{"OBJECT_NAME":"LEMUR-2-MANO","OBJECT_ID":"2023-100E","EPOCH":"2026-03-14T15:13:57.834624","MEAN_MOTION":15.62375698,"ECCENTRICITY":0.000142,"INCLINATION":99.4539,"RA_OF_ASC_NODE":97.8075,"ARG_OF_PERICENTER":186.2413,"MEAN_ANOMALY":173.8821,"EPHEMERIS_TYPE":0,"CLASSIFICATION_TYPE":"U","NORAD_CAT_ID":57390,"ELEMENT_SET_NO":999,"REV_AT_EPOCH":14725,"BSTAR":0.0020589532,"MEAN_MOTION_DOT":0.00186046,"MEAN_MOTION_DDOT":0},{"OBJECT_NAME":"LEMUR-2-DEVERILL-M-T","OBJECT_ID":"2023-100F","EPOCH":"2026-03-14T14:30:57.090816","MEAN_MOTION":15.35072776,"ECCENTRICITY":0.00072969,"INCLINATION":99.4575,"RA_OF_ASC_NODE":85.4206,"ARG_OF_PERICENTER":13.5682,"MEAN_ANOMALY":346.5749,"EPHEMERIS_TYPE":0,"CLASSIFICATION_TYPE":"U","NORAD_CAT_ID":57391,"ELEMENT_SET_NO":999,"REV_AT_EPOCH":14671,"BSTAR":0.0011048443,"MEAN_MOTION_DOT":0.00037674,"MEAN_MOTION_DDOT":0},{"OBJECT_NAME":"LEMUR-2-BASS","OBJECT_ID":"2023-174D","EPOCH":"2026-03-14T16:46:02.520192","MEAN_MOTION":15.39975077,"ECCENTRICITY":0.00085553,"INCLINATION":97.3876,"RA_OF_ASC_NODE":157.309,"ARG_OF_PERICENTER":146.2653,"MEAN_ANOMALY":213.9139,"EPHEMERIS_TYPE":0,"CLASSIFICATION_TYPE":"U","NORAD_CAT_ID":58259,"ELEMENT_SET_NO":999,"REV_AT_EPOCH":13080,"BSTAR":0.00062212579,"MEAN_MOTION_DOT":0.00024796,"MEAN_MOTION_DDOT":0}]
